{
"type": "FeatureCollection",
"name": "substations",
"crs": { "type": "name", "properties": { "name": "urn:ogc:def:crs:OGC:1.3:CRS84" } },
"features": [
{ "type": "Feature", "properties": { "id": 108298302, "name": "Rainey Substation", "power": "substation", "operator": "Consolidated Edison", "substation": "transmission", "voltage": "345000;138000", "frequency": "60", "original_geometry_type": "Polygon" }, "geometry": { "type": "Point", "coordinates": [ -73.943014336551471, 40.76328875 ] } },
{ "type": "Feature", "properties": { "id": 108322562, "name": "Vernon Substation", "power": "substation", "operator": "Consolidated Edison", "substation": "distribution", "voltage": "138000", "frequency": "60", "original_geometry_type": "Polygon" }, "geometry": { "type": "Point", "coordinates": [ -73.94692354614071, 40.7580157 ] } },
{ "type": "Feature", "properties": { "id": 108331538, "name": "North Queens Substation", "power": "substation", "operator": "Consolidated Edison", "substation": "distribution", "voltage": "138000;27000", "frequency": "60", "original_geometry_type": "Polygon" }, "geometry": { "type": "Point", "coordinates": [ -73.906737316662117, 40.7817722 ] } },
{ "type": "Feature", "properties": { "id": 187984305, "name": "Jamaica Substation", "power": "substation", "operator": "Consolidated Edison", "substation": "transmission", "voltage": "138000;27000", "frequency": "60", "original_geometry_type": "Polygon" }, "geometry": { "type": "Point", "coordinates": [ -73.81390755000001, 40.69918525 ] } },
{ "type": "Feature", "properties": { "id": 188367030, "name": "West 49th Street Substation", "power": "substation", "operator": "Consolidated Edison", "substation": "transmission", "voltage": "345000", "frequency": "60", "original_geometry_type": "Polygon" }, "geometry": { "type": "Point", "coordinates": [ -73.99596838681606, 40.76603855 ] } },
{ "type": "Feature", "properties": { "id": 219612704, "name": "Leonard Street Substation", "power": "substation", "operator": "Consolidated Edison", "substation": "distribution", "voltage": "69000;13200", "frequency": "60", "original_geometry_type": "Polygon" }, "geometry": { "type": "Point", "coordinates": [ -74.00647281557724, 40.71843915 ] } },
{ "type": "Feature", "properties": { "id": 232053177, "name": "Queensbridge Substation", "power": "substation", "operator": "Consolidated Edison", "substation": "distribution", "voltage": "138000;69000", "frequency": "60", "original_geometry_type": "Polygon" }, "geometry": { "type": "Point", "coordinates": [ -73.938347952121774, 40.75616395 ] } },
{ "type": "Feature", "properties": { "id": 248829017, "name": "Linden Substation", "power": "substation", "operator": "Consolidated Edison", "substation": "distribution", "voltage": "27000;4000", "frequency": "60", "original_geometry_type": "Polygon" }, "geometry": { "type": "Point", "coordinates": [ -73.733636427639055, 40.6928204 ] } },
{ "type": "Feature", "properties": { "id": 249107547, "name": "Bensonhurst Substation", "power": "substation", "operator": "Consolidated Edison", "substation": "distribution", "voltage": "138000;27000", "frequency": "60", "original_geometry_type": "Polygon" }, "geometry": { "type": "Point", "coordinates": [ -73.975908219654173, 40.6215453 ] } },
{ "type": "Feature", "properties": { "id": 249547428, "name": "Brownsville Substation", "power": "substation", "operator": "Consolidated Edison", "substation": "distribution", "voltage": "138000;27000", "frequency": "60", "original_geometry_type": "Polygon" }, "geometry": { "type": "Point", "coordinates": [ -73.898726853990041, 40.66965515 ] } },
{ "type": "Feature", "properties": { "id": 249930634, "name": "East 64th Street Substation", "power": "substation", "operator": "Consolidated Edison", "substation": "distribution", "voltage": "27000;4000", "frequency": "60", "original_geometry_type": "Polygon" }, "geometry": { "type": "Point", "coordinates": [ -73.917589543564475, 40.61976565 ] } },
{ "type": "Feature", "properties": { "id": 250386730, "name": "Water Street Substation", "power": "substation", "operator": "Consolidated Edison", "substation": "distribution", "voltage": "138000;27000", "frequency": "60", "original_geometry_type": "Polygon" }, "geometry": { "type": "Point", "coordinates": [ -73.981856013930766, 40.7033727 ] } },
{ "type": "Feature", "properties": { "id": 251879805, "name": null, "power": "substation", "operator": "Consolidated Edison", "substation": "transmission", "voltage": "69000", "frequency": "60", "original_geometry_type": "Polygon" }, "geometry": { "type": "Point", "coordinates": [ -73.974303184973877, 40.72737455 ] } },
{ "type": "Feature", "properties": { "id": 264644824, "name": "West 19th Street", "power": "substation", "operator": "Consolidated Edison", "substation": "distribution", "voltage": "69000;13200", "frequency": "60", "original_geometry_type": "Polygon" }, "geometry": { "type": "Point", "coordinates": [ -73.997317014715748, 40.7413115 ] } },
{ "type": "Feature", "properties": { "id": 265040100, "name": null, "power": "substation", "operator": "Consolidated Edison", "substation": null, "voltage": null, "frequency": null, "original_geometry_type": "Polygon" }, "geometry": { "type": "Point", "coordinates": [ -73.983212203318615, 40.74326445 ] } },
{ "type": "Feature", "properties": { "id": 265159390, "name": "Newtown Substation", "power": "substation", "operator": "Consolidated Edison", "substation": "distribution", "voltage": "138000;27000", "frequency": "60", "original_geometry_type": "Polygon" }, "geometry": { "type": "Point", "coordinates": [ -73.931532153937866, 40.7430661 ] } },
{ "type": "Feature", "properties": { "id": 265260927, "name": "Murray Hill Substation", "power": "substation", "operator": "Consolidated Edison", "substation": null, "voltage": null, "frequency": null, "original_geometry_type": "Polygon" }, "geometry": { "type": "Point", "coordinates": [ -73.987371809374991, 40.74679945 ] } },
{ "type": "Feature", "properties": { "id": 269233313, "name": "West 65th Street Substation", "power": "substation", "operator": "Consolidated Edison", "substation": "minor_distribution", "voltage": "138000;13200", "frequency": "50", "original_geometry_type": "Polygon" }, "geometry": { "type": "Point", "coordinates": [ -73.986997899966028, 40.77547545 ] } },
{ "type": "Feature", "properties": { "id": 271199175, "name": "West 110th Street Substation", "power": "substation", "operator": "Consolidated Edison", "substation": "distribution", "voltage": null, "frequency": null, "original_geometry_type": "Polygon" }, "geometry": { "type": "Point", "coordinates": [ -73.963659380144733, 40.80249515 ] } },
{ "type": "Feature", "properties": { "id": 271609420, "name": "Parkview Substation", "power": "substation", "operator": "Consolidated Edison", "substation": "distribution", "voltage": "138000;13200", "frequency": "60", "original_geometry_type": "Polygon" }, "geometry": { "type": "Point", "coordinates": [ -73.936553030255254, 40.8077507 ] } },
{ "type": "Feature", "properties": { "id": 275282973, "name": "Mott Haven Substation", "power": "substation", "operator": "Consolidated Edison", "substation": "distribution", "voltage": "345000;138000;13200", "frequency": "60", "original_geometry_type": "Polygon" }, "geometry": { "type": "Point", "coordinates": [ -73.90642492860718, 40.807837 ] } },
{ "type": "Feature", "properties": { "id": 276057439, "name": "East 179th Street Substation", "power": "substation", "operator": "Consolidated Edison", "substation": "distribution", "voltage": "138000;13200", "frequency": "60", "original_geometry_type": "Polygon" }, "geometry": { "type": "Point", "coordinates": [ -73.893343465492251, 40.84938895 ] } },
{ "type": "Feature", "properties": { "id": 278084890, "name": "Peck Slip Substation", "power": "substation", "operator": "Consolidated Edison", "substation": "yes", "voltage": null, "frequency": null, "original_geometry_type": "Polygon" }, "geometry": { "type": "Point", "coordinates": [ -74.000730344750053, 40.7079631 ] } },
{ "type": "Feature", "properties": { "id": 278327651, "name": "East 36th Street Substation", "power": "substation", "operator": "Consolidated Edison", "substation": "distribution", "voltage": "138000;13200", "frequency": "60", "original_geometry_type": "Polygon" }, "geometry": { "type": "Point", "coordinates": [ -73.971389862956883, 40.74487395 ] } },
{ "type": "Feature", "properties": { "id": 284429117, "name": "Bayside Substation", "power": "substation", "operator": "Consolidated Edison", "substation": "distribution", "voltage": "27000;4000", "frequency": "60", "original_geometry_type": "Polygon" }, "geometry": { "type": "Point", "coordinates": [ -73.770811384663432, 40.7597223 ] } },
{ "type": "Feature", "properties": { "id": 284485817, "name": "Fresh Meadows Substation", "power": "substation", "operator": "Consolidated Edison", "substation": "distribution", "voltage": "27000;4000", "frequency": "60", "original_geometry_type": "Polygon" }, "geometry": { "type": "Point", "coordinates": [ -73.796580814486674, 40.73931475 ] } },
{ "type": "Feature", "properties": { "id": 339711332, "name": "Farragut Substation", "power": "substation", "operator": "Consolidated Edison", "substation": "transmission", "voltage": "345000;138000", "frequency": "60", "original_geometry_type": "Polygon" }, "geometry": { "type": "Point", "coordinates": [ -73.984502289460025, 40.70499985 ] } },
{ "type": "Feature", "properties": { "id": 370675159, "name": "East 75th Street Substation", "power": "substation", "operator": "Consolidated Edison", "substation": "distribution", "voltage": "138000;13200", "frequency": "60", "original_geometry_type": "Polygon" }, "geometry": { "type": "Point", "coordinates": [ -73.950467137890456, 40.7683927 ] } },
{ "type": "Feature", "properties": { "id": 374846762, "name": "Greenwood Substation", "power": "substation", "operator": "Consolidated Edison", "substation": "distribution", "voltage": "138000;27000", "frequency": "60", "original_geometry_type": "Polygon" }, "geometry": { "type": "Point", "coordinates": [ -73.993778890925611, 40.65928955 ] } },
{ "type": "Feature", "properties": { "id": 383102699, "name": "Goethals Substation", "power": "substation", "operator": "Consolidated Edison", "substation": "distribution", "voltage": "345000;230000", "frequency": "60", "original_geometry_type": "Polygon" }, "geometry": { "type": "Point", "coordinates": [ -74.196374080275802, 40.6171293 ] } },
{ "type": "Feature", "properties": { "id": 383102704, "name": "Academy Substation", "power": "substation", "operator": "Consolidated Edison", "substation": "transmission", "voltage": "345000;138000", "frequency": "60", "original_geometry_type": "Polygon" }, "geometry": { "type": "Point", "coordinates": [ -73.919142343130801, 40.86002015 ] } },
{ "type": "Feature", "properties": { "id": 383102707, "name": "Cherry Street Substation", "power": "substation", "operator": "Consolidated Edison", "substation": "distribution", "voltage": "69000;13200", "frequency": "60", "original_geometry_type": "Polygon" }, "geometry": { "type": "Point", "coordinates": [ -73.990690249131688, 40.71136445 ] } },
{ "type": "Feature", "properties": { "id": 383102712, "name": "Fox Hill Substation", "power": "substation", "operator": "Consolidated Edison", "substation": "transmission", "voltage": "138000;33000", "frequency": "60", "original_geometry_type": "Polygon" }, "geometry": { "type": "Point", "coordinates": [ -74.077750224674162, 40.61011675 ] } },
{ "type": "Feature", "properties": { "id": 383102717, "name": "Fresh Kills Substation", "power": "substation", "operator": "Consolidated Edison", "substation": "transmission", "voltage": "345000;138000;33000;13000", "frequency": "60", "original_geometry_type": "Polygon" }, "geometry": { "type": "Point", "coordinates": [ -74.196740762838203, 40.58929305 ] } },
{ "type": "Feature", "properties": { "id": 383102723, "name": "Gowanus Substation", "power": "substation", "operator": "Consolidated Edison", "substation": "transmission", "voltage": "345000;138000", "frequency": "60", "original_geometry_type": "Polygon" }, "geometry": { "type": "Point", "coordinates": [ -74.002380686078141, 40.66201925 ] } },
{ "type": "Feature", "properties": { "id": 383102724, "name": "Hudson Avenue Substation", "power": "substation", "operator": "Consolidated Edison", "substation": "distribution", "voltage": "138000", "frequency": "60", "original_geometry_type": "Polygon" }, "geometry": { "type": "Point", "coordinates": [ -73.98182016978518, 40.7039334 ] } },
{ "type": "Feature", "properties": { "id": 383102725, "name": "Tremont Substation", "power": "substation", "operator": "Consolidated Edison", "substation": "transmission", "voltage": "345000;138000", "frequency": "60", "original_geometry_type": "Polygon" }, "geometry": { "type": "Point", "coordinates": [ -73.863794315157179, 40.8425131 ] } },
{ "type": "Feature", "properties": { "id": 383110525, "name": "Bruckner Substation", "power": "substation", "operator": "Consolidated Edison", "substation": "distribution", "voltage": "138000;13200", "frequency": "60", "original_geometry_type": "Polygon" }, "geometry": { "type": "Point", "coordinates": [ -73.91121475, 40.79923725 ] } },
{ "type": "Feature", "properties": { "id": 383110528, "name": "Corona Substation", "power": "substation", "operator": "Consolidated Edison", "substation": "distribution", "voltage": "138000;27000", "frequency": "60", "original_geometry_type": "Polygon" }, "geometry": { "type": "Point", "coordinates": [ -73.862173058134914, 40.7401262 ] } },
{ "type": "Feature", "properties": { "id": 383110529, "name": "Farragut Substation", "power": "substation", "operator": "Consolidated Edison", "substation": "transmission", "voltage": "345000;138000", "frequency": "60", "original_geometry_type": "LineString" }, "geometry": { "type": "Point", "coordinates": [ -73.9826767, 40.7042829 ] } },
{ "type": "Feature", "properties": { "id": 383110530, "name": "Farragut Substation", "power": "substation", "operator": "Consolidated Edison", "substation": "transmission", "voltage": "345000;138000", "frequency": "60", "original_geometry_type": "LineString" }, "geometry": { "type": "Point", "coordinates": [ -73.9844845, 40.7041437 ] } },
{ "type": "Feature", "properties": { "id": 383110533, "name": "Hell Gate Substation", "power": "substation", "operator": "Consolidated Edison", "substation": "distribution", "voltage": "138000;13200", "frequency": "60", "original_geometry_type": "Polygon" }, "geometry": { "type": "Point", "coordinates": [ -73.909910522287646, 40.7991579 ] } },
{ "type": "Feature", "properties": { "id": 383110539, "name": "Plymouth Substation", "power": "substation", "operator": "Consolidated Edison", "substation": "distribution", "voltage": "138000;27000", "frequency": "60", "original_geometry_type": "Polygon" }, "geometry": { "type": "Point", "coordinates": [ -73.983440120032583, 40.7038661 ] } },
{ "type": "Feature", "properties": { "id": 383541577, "name": "Floral Park Substation", "power": "substation", "operator": "Consolidated Edison", "substation": "distribution", "voltage": "27000;4000", "frequency": "60", "original_geometry_type": "Polygon" }, "geometry": { "type": "Point", "coordinates": [ -73.706951788321703, 40.7373379 ] } },
{ "type": "Feature", "properties": { "id": 383541578, "name": "Flushing Substation", "power": "substation", "operator": "Consolidated Edison", "substation": "distribution", "voltage": "27000;4000", "frequency": "60", "original_geometry_type": "Polygon" }, "geometry": { "type": "Point", "coordinates": [ -73.836106452227, 40.76430795 ] } },
{ "type": "Feature", "properties": { "id": 383541579, "name": "Glen Oaks Substation", "power": "substation", "operator": "Consolidated Edison", "substation": "distribution", "voltage": "27000;4000", "frequency": "60", "original_geometry_type": "Polygon" }, "geometry": { "type": "Point", "coordinates": [ -73.717146691869331, 40.74376425 ] } },
{ "type": "Feature", "properties": { "id": 383541580, "name": "Hillcrest Substation", "power": "substation", "operator": "Consolidated Edison", "substation": "distribution", "voltage": "27000;4000", "frequency": "60", "original_geometry_type": "Polygon" }, "geometry": { "type": "Point", "coordinates": [ -73.804405214972846, 40.724261 ] } },
{ "type": "Feature", "properties": { "id": 383541582, "name": "Howard Beach Substation", "power": "substation", "operator": "Consolidated Edison", "substation": "distribution", "voltage": "27000;4000", "frequency": "60", "original_geometry_type": "Polygon" }, "geometry": { "type": "Point", "coordinates": [ -73.840014659979417, 40.66286055 ] } },
{ "type": "Feature", "properties": { "id": 383575264, "name": "146th Avenue Substation", "power": "substation", "operator": "Consolidated Edison", "substation": "distribution", "voltage": "27000;4000", "frequency": "60", "original_geometry_type": "Polygon" }, "geometry": { "type": "Point", "coordinates": [ -73.754657462653057, 40.65995535 ] } },
{ "type": "Feature", "properties": { "id": 383575265, "name": "151st Avenue Substation", "power": "substation", "operator": "Consolidated Edison", "substation": "distribution", "voltage": "27000;4000", "frequency": "60", "original_geometry_type": "Polygon" }, "geometry": { "type": "Point", "coordinates": [ -73.855055404460629, 40.66686025 ] } },
{ "type": "Feature", "properties": { "id": 383575266, "name": "160th Avenue Substation", "power": "substation", "operator": "Consolidated Edison", "substation": "distribution", "voltage": "27000;4000", "frequency": "60", "original_geometry_type": "Polygon" }, "geometry": { "type": "Point", "coordinates": [ -73.84759840000001, 40.6565902 ] } },
{ "type": "Feature", "properties": { "id": 383575267, "name": "253rd Place Substation", "power": "substation", "operator": "Consolidated Edison", "substation": "distribution", "voltage": "27000;4000", "frequency": "60", "original_geometry_type": "Polygon" }, "geometry": { "type": "Point", "coordinates": [ -73.735228049999989, 40.65670495 ] } },
{ "type": "Feature", "properties": { "id": 383575268, "name": "Alley Park Substation", "power": "substation", "operator": "Consolidated Edison", "substation": "distribution", "voltage": "27000;4000", "frequency": "60", "original_geometry_type": "Polygon" }, "geometry": { "type": "Point", "coordinates": [ -73.7614847, 40.7437233 ] } },
{ "type": "Feature", "properties": { "id": 383575269, "name": "Aqueduct Substation", "power": "substation", "operator": "Consolidated Edison", "substation": "distribution", "voltage": "27000;4000", "frequency": "60", "original_geometry_type": "Polygon" }, "geometry": { "type": "Point", "coordinates": [ -73.8203533, 40.6702032 ] } },
{ "type": "Feature", "properties": { "id": 383575270, "name": "Auburndale Substation", "power": "substation", "operator": "Consolidated Edison", "substation": "distribution", "voltage": "27000;4000", "frequency": "60", "original_geometry_type": "Polygon" }, "geometry": { "type": "Point", "coordinates": [ -73.799323347069475, 40.77652895 ] } },
{ "type": "Feature", "properties": { "id": 383575271, "name": "Beechhurst Substation", "power": "substation", "operator": "Consolidated Edison", "substation": "distribution", "voltage": "27000;4000", "frequency": "60", "original_geometry_type": "Polygon" }, "geometry": { "type": "Point", "coordinates": [ -73.795327023148161, 40.78551265 ] } },
{ "type": "Feature", "properties": { "id": 383575272, "name": "Brinkerhoff Substation", "power": "substation", "operator": "Consolidated Edison", "substation": "distribution", "voltage": "27000;4000", "frequency": "60", "original_geometry_type": "Polygon" }, "geometry": { "type": "Point", "coordinates": [ -73.7880071, 40.69466085 ] } },
{ "type": "Feature", "properties": { "id": 383575274, "name": "Causeway Substation", "power": "substation", "operator": "Consolidated Edison", "substation": "distribution", "voltage": "27000;4000", "frequency": "60", "original_geometry_type": "Polygon" }, "geometry": { "type": "Point", "coordinates": [ -73.841842169394994, 40.77887155 ] } },
{ "type": "Feature", "properties": { "id": 383575275, "name": "Cedar Manor Substation", "power": "substation", "operator": "Consolidated Edison", "substation": "distribution", "voltage": "27000;4000", "frequency": "60", "original_geometry_type": "Polygon" }, "geometry": { "type": "Point", "coordinates": [ -73.785159852583078, 40.68897585 ] } },
{ "type": "Feature", "properties": { "id": 383575276, "name": "Centerville Substation", "power": "substation", "operator": "Consolidated Edison", "substation": "distribution", "voltage": "27000;4000", "frequency": "60", "original_geometry_type": "Polygon" }, "geometry": { "type": "Point", "coordinates": [ -73.836425255991074, 40.6745952 ] } },
{ "type": "Feature", "properties": { "id": 383575277, "name": "Chisholm Substation", "power": "substation", "operator": "Consolidated Edison", "substation": "distribution", "voltage": "27000;4000", "frequency": "60", "original_geometry_type": "Polygon" }, "geometry": { "type": "Point", "coordinates": [ -73.85090965, 40.7842067 ] } },
{ "type": "Feature", "properties": { "id": 383575278, "name": "Clearview Substation", "power": "substation", "operator": "Consolidated Edison", "substation": "distribution", "voltage": "27000;4000", "frequency": "60", "original_geometry_type": "Polygon" }, "geometry": { "type": "Point", "coordinates": [ -73.780581215884169, 40.77705505 ] } },
{ "type": "Feature", "properties": { "id": 383575279, "name": "Creedmoor Substation", "power": "substation", "operator": "Consolidated Edison", "substation": "distribution", "voltage": "27000;4000", "frequency": "60", "original_geometry_type": "Polygon" }, "geometry": { "type": "Point", "coordinates": [ -73.7251935, 40.73404075 ] } },
{ "type": "Feature", "properties": { "id": 383575280, "name": "Cunningham Substation", "power": "substation", "operator": "Consolidated Edison", "substation": "distribution", "voltage": "27000;4000", "frequency": "60", "original_geometry_type": "Polygon" }, "geometry": { "type": "Point", "coordinates": [ -73.784047, 40.7279568 ] } },
{ "type": "Feature", "properties": { "id": 383575281, "name": "Douglaston Substation", "power": "substation", "operator": "Consolidated Edison", "substation": "distribution", "voltage": "27000;4000", "frequency": "60", "original_geometry_type": "Polygon" }, "geometry": { "type": "Point", "coordinates": [ -73.74229745, 40.7652421 ] } },
{ "type": "Feature", "properties": { "id": 383575286, "name": "Montefiore Substation", "power": "substation", "operator": "Consolidated Edison", "substation": "distribution", "voltage": "27000;4000", "frequency": "60", "original_geometry_type": "Polygon" }, "geometry": { "type": "Point", "coordinates": [ -73.750842006023447, 40.68384295 ] } },
{ "type": "Feature", "properties": { "id": 383575287, "name": "North Hills Substation", "power": "substation", "operator": "Consolidated Edison", "substation": "distribution", "voltage": "27000;4000", "frequency": "60", "original_geometry_type": "Polygon" }, "geometry": { "type": "Point", "coordinates": [ -73.737384899167012, 40.74865485 ] } },
{ "type": "Feature", "properties": { "id": 383585969, "name": null, "power": "substation", "operator": "Consolidated Edison", "substation": "distribution", "voltage": "27000;4000", "frequency": "60", "original_geometry_type": "Polygon" }, "geometry": { "type": "Point", "coordinates": [ -73.79062065, 40.675857 ] } },
{ "type": "Feature", "properties": { "id": 383585972, "name": "Avenue N Substation", "power": "substation", "operator": "Consolidated Edison", "substation": "distribution", "voltage": "27000;4000", "frequency": "60", "original_geometry_type": "Polygon" }, "geometry": { "type": "Point", "coordinates": [ -73.93035985, 40.61849815 ] } },
{ "type": "Feature", "properties": { "id": 383585973, "name": "Cambria Substation", "power": "substation", "operator": "Consolidated Edison", "substation": "distribution", "voltage": "27000;4000", "frequency": "60", "original_geometry_type": "Polygon" }, "geometry": { "type": "Point", "coordinates": [ -73.746753392570824, 40.6965337 ] } },
{ "type": "Feature", "properties": { "id": 383585974, "name": "Clifton Substation", "power": "substation", "operator": "Consolidated Edison", "substation": "distribution", "voltage": "33000;4000", "frequency": "60", "original_geometry_type": "Polygon" }, "geometry": { "type": "Point", "coordinates": [ -74.07144475, 40.61970375 ] } },
{ "type": "Feature", "properties": { "id": 383585976, "name": "East 179th Street Substation", "power": "substation", "operator": "Consolidated Edison", "substation": "distribution", "voltage": "138000;13200", "frequency": "60", "original_geometry_type": "Polygon" }, "geometry": { "type": "Point", "coordinates": [ -73.894174161591053, 40.84961845 ] } },
{ "type": "Feature", "properties": { "id": 383585977, "name": "East 83rd Street Substation", "power": "substation", "operator": "Consolidated Edison", "substation": "distribution", "voltage": "27000;4000", "frequency": "60", "original_geometry_type": "Polygon" }, "geometry": { "type": "Point", "coordinates": [ -73.902381448481293, 40.62886795 ] } },
{ "type": "Feature", "properties": { "id": 383585978, "name": "Lefferts Substation", "power": "substation", "operator": "Consolidated Edison", "substation": "distribution", "voltage": "27000;4000", "frequency": "60", "original_geometry_type": "Polygon" }, "geometry": { "type": "Point", "coordinates": [ -73.819099476265222, 40.67660445 ] } },
{ "type": "Feature", "properties": { "id": 383585979, "name": "Livonia Avenue Substation", "power": "substation", "operator": "Consolidated Edison", "substation": "distribution", "voltage": "27000;4000", "frequency": "60", "original_geometry_type": "Polygon" }, "geometry": { "type": "Point", "coordinates": [ -73.889098272105571, 40.66573085 ] } },
{ "type": "Feature", "properties": { "id": 383585980, "name": "Mill Avenue Substation", "power": "substation", "operator": "Consolidated Edison", "substation": "distribution", "voltage": "27000;4000", "frequency": "60", "original_geometry_type": "Polygon" }, "geometry": { "type": "Point", "coordinates": [ -73.91334025, 40.6145372 ] } },
{ "type": "Feature", "properties": { "id": 383585981, "name": "Oakland Substation", "power": "substation", "operator": "Consolidated Edison", "substation": "distribution", "voltage": "27000;4000", "frequency": "60", "original_geometry_type": "Polygon" }, "geometry": { "type": "Point", "coordinates": [ -73.762046831708034, 40.74788255 ] } },
{ "type": "Feature", "properties": { "id": 383585983, "name": "Parkway Substation", "power": "substation", "operator": "Consolidated Edison", "substation": "distribution", "voltage": "27000;4000", "frequency": "60", "original_geometry_type": "Polygon" }, "geometry": { "type": "Point", "coordinates": [ -73.727556547054704, 40.7403152 ] } },
{ "type": "Feature", "properties": { "id": 383585984, "name": "Rockaway Substation", "power": "substation", "operator": "Consolidated Edison", "substation": "distribution", "voltage": "27000;4000", "frequency": "60", "original_geometry_type": "Polygon" }, "geometry": { "type": "Point", "coordinates": [ -73.805437960449524, 40.6753285 ] } },
{ "type": "Feature", "properties": { "id": 383585985, "name": "Rosedale Substation", "power": "substation", "operator": "Consolidated Edison", "substation": "distribution", "voltage": "27000;4000", "frequency": "60", "original_geometry_type": "Polygon" }, "geometry": { "type": "Point", "coordinates": [ -73.7367947, 40.66798715 ] } },
{ "type": "Feature", "properties": { "id": 383585986, "name": "Springfield Substation", "power": "substation", "operator": "Consolidated Edison", "substation": "distribution", "voltage": "27000;4000", "frequency": "60", "original_geometry_type": "Polygon" }, "geometry": { "type": "Point", "coordinates": [ -73.760877666815858, 40.6790047 ] } },
{ "type": "Feature", "properties": { "id": 383585991, "name": "Sutphin Substation", "power": "substation", "operator": "Consolidated Edison", "substation": "distribution", "voltage": "27000;4000", "frequency": "60", "original_geometry_type": "Polygon" }, "geometry": { "type": "Point", "coordinates": [ -73.795469885508169, 40.68902315 ] } },
{ "type": "Feature", "properties": { "id": 383585995, "name": "Union Substation", "power": "substation", "operator": "Consolidated Edison", "substation": "distribution", "voltage": "27000;4000", "frequency": "60", "original_geometry_type": "Polygon" }, "geometry": { "type": "Point", "coordinates": [ -73.758463586311123, 40.73351835 ] } },
{ "type": "Feature", "properties": { "id": 383585996, "name": "Whitestone Substation", "power": "substation", "operator": "Consolidated Edison", "substation": "distribution", "voltage": "27000;4000", "frequency": "60", "original_geometry_type": "Polygon" }, "geometry": { "type": "Point", "coordinates": [ -73.812115864837779, 40.788724 ] } },
{ "type": "Feature", "properties": { "id": 383585997, "name": "Woodhaven Substation", "power": "substation", "operator": "Consolidated Edison", "substation": "distribution", "voltage": "27000;4000", "frequency": "60", "original_geometry_type": "Polygon" }, "geometry": { "type": "Point", "coordinates": [ -73.843957, 40.68982625 ] } },
{ "type": "Feature", "properties": { "id": 383590979, "name": null, "power": "substation", "operator": "Consolidated Edison", "substation": "distribution", "voltage": "33000;4000", "frequency": "60", "original_geometry_type": "Polygon" }, "geometry": { "type": "Point", "coordinates": [ -74.1523631, 40.6258112 ] } },
{ "type": "Feature", "properties": { "id": 383590980, "name": null, "power": "substation", "operator": "Consolidated Edison", "substation": "distribution", "voltage": "33000;4000", "frequency": "60", "original_geometry_type": "Polygon" }, "geometry": { "type": "Point", "coordinates": [ -74.109303686285074, 40.64485275 ] } },
{ "type": "Feature", "properties": { "id": 383590981, "name": "Clove Lakes Substation", "power": "substation", "operator": "Consolidated Edison", "substation": "distribution", "voltage": "33000;4000", "frequency": "60", "original_geometry_type": "Polygon" }, "geometry": { "type": "Point", "coordinates": [ -74.1175196, 40.61369985 ] } },
{ "type": "Feature", "properties": { "id": 383590982, "name": "Dongan Hills Substation", "power": "substation", "operator": "Consolidated Edison", "substation": "distribution", "voltage": "33000;4000", "frequency": "60", "original_geometry_type": "Polygon" }, "geometry": { "type": "Point", "coordinates": [ -74.085250015479403, 40.58883575 ] } },
{ "type": "Feature", "properties": { "id": 383590983, "name": "Howland Hook Substation", "power": "substation", "operator": "Consolidated Edison", "substation": "minor_distribution", "voltage": "33000;4000", "frequency": "60", "original_geometry_type": "Polygon" }, "geometry": { "type": "Point", "coordinates": [ -74.18220745, 40.6412553 ] } },
{ "type": "Feature", "properties": { "id": 383590985, "name": "Naughton Substation", "power": "substation", "operator": "Consolidated Edison", "substation": "distribution", "voltage": "33000;4000", "frequency": "60", "original_geometry_type": "Polygon" }, "geometry": { "type": "Point", "coordinates": [ -74.094489891584189, 40.58480885 ] } },
{ "type": "Feature", "properties": { "id": 383590986, "name": "Odin Substation", "power": "substation", "operator": "Consolidated Edison", "substation": "distribution", "voltage": "33000;4000", "frequency": "60", "original_geometry_type": "Polygon" }, "geometry": { "type": "Point", "coordinates": [ -74.12058165, 40.57583015 ] } },
{ "type": "Feature", "properties": { "id": 383590987, "name": "Port Richmond Substation", "power": "substation", "operator": "Consolidated Edison", "substation": "distribution", "voltage": "33000;4000", "frequency": "60", "original_geometry_type": "Polygon" }, "geometry": { "type": "Point", "coordinates": [ -74.130388797218188, 40.63895905 ] } },
{ "type": "Feature", "properties": { "id": 383590988, "name": "Seaside Substation", "power": "substation", "operator": "Consolidated Edison", "substation": "distribution", "voltage": "33000;4000", "frequency": "60", "original_geometry_type": "Polygon" }, "geometry": { "type": "Point", "coordinates": [ -74.082422700730888, 40.58201855 ] } },
{ "type": "Feature", "properties": { "id": 383590989, "name": "Silver Lake Substation", "power": "substation", "operator": "Consolidated Edison", "substation": "distribution", "voltage": "33000;4000", "frequency": "60", "original_geometry_type": "Polygon" }, "geometry": { "type": "Point", "coordinates": [ -74.086474611810132, 40.6321388 ] } },
{ "type": "Feature", "properties": { "id": 383590990, "name": "Wadsworth Substation", "power": "substation", "operator": "Consolidated Edison", "substation": "distribution", "voltage": "33000;4000", "frequency": "60", "original_geometry_type": "Polygon" }, "geometry": { "type": "Point", "coordinates": [ -74.06649528320051, 40.6055207 ] } },
{ "type": "Feature", "properties": { "id": 383590991, "name": "Westerleigh Substation", "power": "substation", "operator": "Consolidated Edison", "substation": "distribution", "voltage": "33000;4000", "frequency": "60", "original_geometry_type": "Polygon" }, "geometry": { "type": "Point", "coordinates": [ -74.1312517, 40.627945 ] } },
{ "type": "Feature", "properties": { "id": 447778008, "name": "New Brighton Substation", "power": "substation", "operator": "Consolidated Edison", "substation": "distribution", "voltage": null, "frequency": null, "original_geometry_type": "Polygon" }, "geometry": { "type": "Point", "coordinates": [ -74.09313997708071, 40.64511525 ] } },
{ "type": "Feature", "properties": { "id": 684470438, "name": "Sherman Creek Substation", "power": "substation", "operator": "Consolidated Edison", "substation": "yes", "voltage": null, "frequency": null, "original_geometry_type": "Polygon" }, "geometry": { "type": "Point", "coordinates": [ -73.920363278490754, 40.8605917 ] } },
{ "type": "Feature", "properties": { "id": 1338654396, "name": "11th Street Conduit", "power": "substation", "operator": "Consolidated Edison", "substation": null, "voltage": null, "frequency": null, "original_geometry_type": "Polygon" }, "geometry": { "type": "Point", "coordinates": [ -73.952406151469603, 40.73839195 ] } },
{ "type": "Feature", "properties": { "id": 1338654415, "name": "11th Street Conduit", "power": "substation", "operator": "Consolidated Edison", "substation": "yes", "voltage": null, "frequency": null, "original_geometry_type": "Polygon" }, "geometry": { "type": "Point", "coordinates": [ -73.950754493083281, 40.74406165 ] } },
{ "type": "Feature", "properties": { "id": 1434668163, "name": "Woodrow Substation", "power": "substation", "operator": "Consolidated Edison", "substation": "distribution", "voltage": "138000;13200", "frequency": "60", "original_geometry_type": "Polygon" }, "geometry": { "type": "Point", "coordinates": [ -74.21524609093305, 40.55480105 ] } },
{ "type": "Feature", "properties": { "id": 1472076552, "name": "Willowbrook Substation", "power": "substation", "operator": "Consolidated Edison", "substation": "distribution", "voltage": "138000;33000;13200;4000", "frequency": "50", "original_geometry_type": "Polygon" }, "geometry": { "type": "Point", "coordinates": [ -74.145644931160859, 40.61078125 ] } },
{ "type": "Feature", "properties": { "id": 1508559019, "name": null, "power": "substation", "operator": "Consolidated Edison", "substation": "minor_distribution", "voltage": "138000;13200", "frequency": null, "original_geometry_type": "Polygon" }, "geometry": { "type": "Point", "coordinates": [ -74.012263035450616, 40.71347895 ] } }
]
}
